street_number,latitude,longitude,name_and_business,icon
169,-31.949646779999900,115.858579900000000,"Kalaf E, smallgoods dealer",icon_1949
173,-31.949660600000000,115.858735800000000,Oriental Grocery Store,icon_1949
175,-31.949598540000000,115.858611499999000,Popular Drycleaners and Dryers,icon_1949
177,-31.949498060000000,115.858509700000000,"Clifton Hardware Co., hardware dealers",icon_1949
179,-31.949591349999900,115.858779799999000,"Meek Robert, tobacconist",icon_1949
181,-31.949544889999900,115.858679600000000,Kun Ming Cafe restaurant,icon_1949
183,-31.949510539999900,115.858606100000000,"Michael & Co. A, radio dealers",icon_1949
185,-31.949449200000000,115.858552600000000,"Kakulas Bros., grocer",icon_1949
187,-31.949445269999900,115.858714800000000,"Dimanoff Andrea V, fish monger ",icon_1949
188,-31.949512609999900,115.859213400000000,"Washington All Cafe The, rstnt",icon_1949
189,-31.949238650000000,115.858669199999000,Dermer's Newsagency,icon_1949
191,-31.949210839999900,115.858756400000000,"Boxhorn A R, watchmaker and jeweller ",icon_1949
193,-31.949248550000000,115.858964000000000,"Anastasas M, fruitier",icon_1949
195,-31.949201089999900,115.858877100000000,"Franchina C, Furniture mfr",icon_1949
197,-31.949200980000000,115.858961200000000,"Wong Sue, herbalist",icon_1949
199,-31.949209130000000,115.859016999999000,"Marchesi A, welder",icon_1949
200,-31.949243289999900,115.859423699999000,"Symonds Edwin, and plant mchnt",icon_1949
201,-31.949116090000000,115.859095500000000,"Georges & Christo, Mixed Businesses; Symonds Edwin, and plant mchnt",icon_1949
202,-31.949264889999900,115.859625100000000,"Symonds Edwin, and plant mchnt",icon_1949
203,-31.948889200000000,115.859171500000000,"Medd K L, Chemist",icon_1949
205,-31.948807609999900,115.859178800000000,"Scotis N, hairdresser and tobacconist",icon_1949
206,-31.949127180000000,115.859631900000000,Bank of NSW,icon_1949
207,-31.948870260000000,115.859254600000000,"Dean Abdul M, Herbalist",icon_1949
209,-31.948792180000000,115.859014900000000,Great Western Hotel,icon_1949
215,-31.948603660000000,115.859219300000000,"Luisini E, Clothier",icon_1949
217,-31.948647210000000,115.859391100000000,"Luisini E, Clothier",icon_1949
219,-31.948527129999900,115.859342799999000,"Luisini E, Clothier",icon_1949
220,-31.948666270000000,115.859727800000000,"Beckman B, dealer",icon_1949
221,-31.948548880000000,115.859505000000000,"Luisini E, Wine Saloon",icon_1949
223,-31.948444739999900,115.859241100000000,George's Tailoring Co. ,icon_1949
225,-31.948344599999900,115.859376999999000,"Krasnostein J, Hardware Dealer",icon_1949
227,-31.948345610000000,115.859229400000000,"Pethick Leonard, Butcher",icon_1949
229,-31.948443189999900,115.859576399999000,"Clonzas G, Grocer",icon_1949
230,-31.948511669999900,115.859872200000000,"Paramount Film Service, Pty Ltd, film exchange",icon_1949
231,-31.948296549999900,115.859481000000000,"Galvin and Co. R, Plumbers supplies; Rear: Premier Engineering Co., brassfounders",icon_1949
236,-31.948466289999900,115.860124200000000,New Zealand dining restaraunt,icon_1949
237,-31.948151729999900,115.859466400000000,"Papas Nick, Tailors",icon_1949
239,-31.948225000000000,115.859607900000000,"Hassett Richard J, Newsagent",icon_1949
241,-31.948050080000000,115.859487300000000,WA Drycleaners,icon_1949
243,-31.948108040000000,115.859647200000000,"Athanasou M D, Fruitier",icon_1949
245,-31.947900570000000,115.859741300000000,"Enright Mrs A, Wine Saloon",icon_1949
246,-31.948067410000000,115.860118000000000,City Electric Co. elec contractors,icon_1949
247,-31.947794550000000,115.859696900000000,"Britannia Bootmakers, Boot Repairers",icon_1949
248,-31.948075710000000,115.860280300000000,"Rosenberg Marcus, second hand dealer",icon_1949
249,-31.947875140000000,115.859895400000000,"Tompkin A A, Refreshment Rooms",icon_1949
253,-31.947768620000000,115.859961700000000,Britannia Coffee Palace,icon_1949
255,-31.947694599999900,115.859867800000000,Britannia Coffee Palace,icon_1949
257,-31.947606830000000,115.859839600000000,Britannia Coffee Palace,icon_1949
259,-31.947651470000000,115.859923200000000,"Ridolfo Carmelo, Hairdresser and Tobacconist",icon_1949
260,-31.947793059999900,115.860479200000000,Graham J H Tent mkr,icon_1949
261,-31.947538580000000,115.859893200000000,"Duduman A, Tailor",icon_1949
263,-31.947580989999900,115.860048000000000,New York Drycleaners,icon_1949
264,-31.947718030000000,115.860518600000000,"Snowhite Towel and Overall Serv, ltd, lndry",icon_1949
265,-31.947524800000000,115.859956500000000,"Turner A S, Accountant",icon_1949
266,-31.947624690000000,115.860372799999000,"Rappeport Gilbt, furn mfr",icon_1949
267,-31.947411230000000,115.859923900000000,"Man Sun J C, laundry; Manchester Unity Hall; MUIOOF lodge",icon_1949
269,-31.947402640000000,115.860035800000000,"Dorigo Jno, Tailor",icon_1949
271,-31.947307100000000,115.859912900000000,"De Ceglic Glovanni, Hairdresser",icon_1949
272,-31.947585709999900,115.860606700000000,"Christo P P, tailor",icon_1949
273,-31.947310089999900,115.860015500000000,"Italiano A, Tailor",icon_1949
274,-31.947533610000000,115.860531400000000,"Marchest and Moretto, tailors",icon_1949
275,-31.947348620000000,115.860211300000000,"Patman E G & L M, Refreshment Rooms",icon_1949
277,-31.947284300000000,115.860141300000000,"Rappeport G, French Polisher",icon_1949
278,-31.947463480000000,115.860581999999000,"Marto Spiro, mix bus",icon_1949
280,-31.947436960000000,115.860657900000000,Frost H P Scientific inst maker,icon_1949
281,-31.947219019999900,115.860018600000000,"New York Dental Co, dentists",icon_1949
283,-31.946984230000000,115.860229600000000,"Underwood V, Draper",icon_1949
284,-31.947208530000000,115.860689600000000,"Sparta G, grocer",icon_1949
286,-31.947134179999900,115.860705700000000,"Sparta G, grocer",icon_1949
287,-31.946923080000000,115.860298500000000,Jubilee Cafe,icon_1949
289,-31.946831190000000,115.860277500000000,Black & White Fruitiers,icon_1949
291,-31.946916200000000,115.860469100000000,Champion Butchers,icon_1949
305,-31.946485330000000,115.860487800000000,"Langon Signs and displays, Signwriters",icon_1949
307,-31.946538430000000,115.860650199999000,George's Furniture and Hardware,icon_1949
309,-31.946559839999900,115.860768600000000,"Kowol Francis, Mix Business",icon_1949
310,-31.946732740000000,115.861187599999000,"Dzienclol G, upholsterer ",icon_1949
311,-31.946425710000000,115.860547500000000,American Drycleaners,icon_1949
313,-31.946469400000000,115.860761700000000,St Kilda Cafe,icon_1949
314,-31.946569029999900,115.861181800000000,"Devine Jno, second hand dealer",icon_1949
315,-31.946360429999900,115.860634400000000,"Christine Beauty Salon, ladies hairdresser",icon_1949
316,-31.946495850000000,115.861217200000000,"Devine Jno, second hand dealer",icon_1949
317,-31.946379220000000,115.860813500000000,"Kakulas Bros., grocer",icon_1949
318,-31.946422819999900,115.861151600000000,Metro Employment Exchange registry office ,icon_1949
319,-31.946203350000000,115.860684699999000,"Barnard Arthur, Fruitier and Confectioner",icon_1949
320,-31.946561939999900,115.861323600000000,"McLennan Ken, grocer",icon_1949
321,-31.946108559999900,115.860993600000000,"MacDonnell J, Chemist",icon_1949
335,-31.945686609999900,115.861044400000000,Blue Room Cabaret and Milk Bar,icon_1949
338,-31.945893330000000,115.861513900000000,"Evans F E, watchmaker; Bastian Mrs L, laundry",icon_1949
339,-31.945632710000000,115.861267299999000,"WA Stove Co., Stove Makers; Hassell and Co. Stove Makers",icon_1949
340,-31.945974230000000,115.861584600000000,"McNicol Mrs L, second hand dealer",icon_1949
341,-31.945439690000000,115.861059299999000,"Turnbull J J, Motor Engineer",icon_1949
342,-31.945898979999900,115.861682100000000,"Bennett A S, wicker worker",icon_1949
343,-31.945481399999900,115.861385600000000,"Turnbull J J, Motor Engineer",icon_1949
345,-31.945400570000000,115.861209500000000,"Turnbull J J, Motor Engineer",icon_1949
346,-31.945731469999900,115.861785100000000,"Perth General Dealers, Morris Samelowitz",icon_1949
347,-31.945268299999900,115.860873000000000,"Turnbull J J, Motor Engineer",icon_1949
348,-31.945737120000000,115.861956900000000,"Perth General Dealers (yard), Morris Samelowitz; Topelberg E second hand dealers",icon_1949
349,-31.945408100000000,115.861470100000000,Kelly & Lewis (WA) Pty Ltd Motor Engineers,icon_1949
352,-31.945668049999900,115.861953300000000,Dow Pty Ltd Electrical engineers,icon_1949
356,-31.945627020000000,115.862051200000000,"McDonald A H, store room",icon_1949
358,-31.945444269999900,115.861753800000000,"Bishop A E, hairdresser and tob",icon_1949
364,-31.945467059999900,115.862078800000000,Style Clothing Co. Clothing mfr,icon_1949
381,-31.944359120000000,115.861526200000000,"Spanney Miss C, Second Hand Dealer",icon_1949
383,-31.944596050000000,115.861795000000000,"Cassidy Mrs Alice, Mixed Business",icon_1949
385,-31.944438829999900,115.861700900000000,"Berryman Mrs Annie, Clothes repairer",icon_1949
387,-31.944507730000000,115.861814600000000,"Frankina Mrs O, Dressmaker",icon_1949
388,-31.944886850000000,115.862518100000000,"Hamilton G C, mix business",icon_1949
389,-31.944614510000000,115.861956600000000,"Hamilton G C, mix business; Roberts Alex Bookseller and Library",icon_1949
390,-31.944747220000000,115.862220900000000,"Hamilton G C, mix business",icon_1949
393,-31.944465300000000,115.862060200000000,"Scown H J, Butcher",icon_1949
394,-31.944627090000000,115.862251700000000,"Bucci M & J, Mix business",icon_1949
396,-31.944679890000000,115.862386400000000,"Bucci M & J, Mix business",icon_1949
411,-31.944014760000000,115.862141500000000,"Somas M, Mix Business",icon_1949
413,-31.944103089999900,115.862278100000000,"Somas M, Mix Business",icon_1949
415,-31.943941379999900,115.862192900000000,"Smith R E, French Polisher",icon_1949
425,-31.943837420000000,115.862405000000000,"Belestis Lou, Grocer",icon_1949
428,-31.943781640000000,115.862791700000000,"Aftons Soft Furnishings, Furnishings drapery retailers",icon_1949
430,-31.943959130000000,115.863099300000000,"City Towel Supply Co., laundry",icon_1949
434,-31.943774959999900,115.863009800000000,"Globe furniture Co., store room; Rear: Alpha Products, cardboard box mfr; Ava Confections, confrs mfg",icon_1949
456,-31.943306539999900,115.863251199999000,"Campbell Reg, bicycle dealer",icon_1949
458,-31.943170530000000,115.863475300000000,"Knights Nukleen Serv, drycleaners and dryers; Westphal M A, watchmaker",icon_1949
459,-31.942929469999900,115.862966000000000,"Curran M R, Boot Repairer",icon_1949
460,-31.943084519999900,115.863262700000000,"Peek Mrs F, wine Saloon",icon_1949
267a,-31.947615240000000,115.859951900000000,Western Dairy Co.,icon_1949
267B,-31.947481400000000,115.859877299999000,"Giannasi P, Greengrocer and Fruitier",icon_1949
269a,-31.947496730000000,115.860046800000000,Swan Gymnasium phys culture,icon_1949
276 - GROUND,-31.947521909999900,115.860677499999000,"Isaia Mrs F, dressmaker",icon_1949
291a,-31.947104580000000,115.860849300000000,"Keet D G, Antique Dealer",icon_1949
